GSAT0101 (GALILEO-PFM)  
1 37846U 11060A   26179.58009327 -.00000091  00000+0  00000+0 0  9994
2 37846  56.9903 341.4524 0002773  56.8947 303.1240  1.70475893 91314
GSAT0102 (GALILEO-FM2)  
1 37847U 11060B   26176.58449965 -.00000097  00000+0  00000+0 0  9994
2 37847  56.9921 341.5338 0002831  14.5912 352.5946  1.70476098 91271
GSAT0103 (GALILEO-FM3)  
1 38857U 12055A   26177.86101312 -.00000037  00000+0  00000+0 0  9998
2 38857  55.8122 101.2802 0004638 306.6783  53.2530  1.70473558 85173
GSAT0201 (GALILEO 5)    
1 40128U 14050A   26179.19664367 -.00000047  00000+0  00000+0 0  9992
2 40128  48.8631 272.9846 1676138 179.8176 180.3141  1.85520215 78525
GSAT0202 (GALILEO 6)    
1 40129U 14050B   26179.45214596 -.00000043  00000+0  00000+0 0  9993
2 40129  48.8797 272.0598 1677400 180.5593 179.2896  1.85520734 80690
GSAT0203 (GALILEO 7)    
1 40544U 15017A   26179.35787829 -.00000092  00000+0  00000+0 0  9995
2 40544  56.7824 341.2913 0002161 267.9865  91.9808  1.70476391 69397
GSAT0204 (GALILEO 8)    
1 40545U 15017B   26179.02711539 -.00000093  00000+0  00000+0 0  9996
2 40545  56.7895 341.3189 0002224 238.6181 121.3527  1.70475922 32438
GSAT0206 (GALILEO 10)   
1 40890U 15045B   26179.60239011  .00000070  00000+0  00000+0 0  9998
2 40890  54.9424 221.2890 0001824 328.9873  31.0992  1.70473821 67235
GSAT0209 (GALILEO 12)   
1 41174U 15079A   26179.18392164 -.00000033  00000+0  00000+0 0  9993
2 41174  55.8335 100.9603 0005085 347.1897  12.7761  1.70473803 64966
GSAT0208 (GALILEO 11)   
1 41175U 15079B   26177.05790245 -.00000039  00000+0  00000+0 0  9996
2 41175  55.8311 101.0154 0004595 354.0123   5.9555  1.70473681 65340
GSAT0211 (GALILEO 14)   
1 41549U 16030A   26178.94152421  .00000069  00000+0  00000+0 0  9998
2 41549  55.0927 221.3989 0003116 320.4926  39.5816  1.70474008 62858
GSAT0210 (GALILEO 13)   
1 41550U 16030B   26178.02561661  .00000065  00000+0  00000+0 0  9995
2 41550  55.0912 221.4221 0007792 256.4220 103.5859  1.70473957 62832
GSAT0207 (GALILEO 15)   
1 41859U 16069A   26177.71738502 -.00000038  00000+0  00000+0 0  9995
2 41859  55.5042 100.8225 0005006 333.0982  26.8500  1.70473700 59562
GSAT0212 (GALILEO 16)   
1 41860U 16069B   26179.33057380 -.00000033  00000+0  00000+0 0  9990
2 41860  55.5028 100.7730 0004434   6.1382 353.8467  1.70473934 59849
